NORAD_CAT_ID,OBJECT_NAME,OBJECT_TYPE,EPOCH,MEAN_MOTION,ECCENTRICITY,INCLINATION,RA_OF_ASC_NODE,ARG_OF_PERICENTER,MEAN_ANOMALY,BSTAR,MEAN_MOTION_DOT,MEAN_MOTION_DDOT,TLE_LINE0,TLE_LINE1,TLE_LINE2,SEMIMAJOR_AXIS,PERIOD,APOGEE,PERIGEE,DECAYED
54178.0,STARLINK-5164,PAYLOAD,2023-06-18 06:10:50,15.0883839,0.0001559,53.2168,152.5896,81.1038,279.0131,7.3864e-06,-1.7e-06,0.0,0 STARLINK-5164,1 54178U 22141X   23169.25752371 -.00000170  00000-0  73864-5 0  9990,2 54178  53.2168 152.5896 0001559  81.1038 279.0131 15.08838390 35588,6917.885,95.438,540.829,538.672,0.0
54178.0,STARLINK-5164,PAYLOAD,2023-06-18 15:43:09,15.08836263,0.000124,53.2163,150.8074,88.1629,271.9505,3.2289e-06,-2.36e-06,0.0,0 STARLINK-5164,1 54178U 22141X   23169.65496590 -.00000236  00000-0  32289-5 0  9991,2 54178  53.2163 150.8074 0001240  88.1629 271.9505 15.08836263 35642,6917.892,95.438,540.615,538.899,0.0
54178.0,STARLINK-5164,PAYLOAD,2023-06-19 07:37:00,15.08841684,0.0001152,53.2155,147.8333,87.2777,272.8347,7.042e-05,8.33e-06,0.0,0 STARLINK-5164,1 54178U 22141X   23170.31736162  .00000833  00000-0  70420-4 0  9998,2 54178  53.2155 147.8333 0001152  87.2777 272.8347 15.08841684 35741,6917.875,95.437,540.537,538.943,0.0
54178.0,STARLINK-5164,PAYLOAD,2023-06-19 10:47:46,15.08844641,0.0001199,53.2159,147.2386,94.6819,265.431,9.5763e-05,1.237e-05,0.0,0 STARLINK-5164,1 54178U 22141X   23170.44983920  .00001237  00000-0  95763-4 0  9994,2 54178  53.2159 147.2386 0001199  94.6819 265.4310 15.08844641 35763,6917.866,95.437,540.561,538.902,0.0
54178.0,STARLINK-5164,PAYLOAD,2023-06-19 15:33:55,15.08838434,0.0001158,53.2153,146.3465,89.385,270.7275,6.1762e-05,6.95e-06,0.0,0 STARLINK-5164,1 54178U 22141X   23170.64856460  .00000695  00000-0  61762-4 0  9993,2 54178  53.2153 146.3465 0001158  89.3850 270.7275 15.08838434 35791,6917.885,95.438,540.551,538.949,0.0
54178.0,STARLINK-5164,PAYLOAD,2023-06-20 10:38:33,15.08843626,0.0001194,53.2158,142.7775,88.776,271.3368,0.00013571,1.873e-05,0.0,0 STARLINK-5164,1 54178U 22141X   23171.44344096  .00001873  00000-0  13571-3 0  9992,2 54178  53.2158 142.7775 0001194  88.7760 271.3368 15.08843626 35916,6917.869,95.437,540.56,538.908,0.0
54178.0,STARLINK-5164,PAYLOAD,2023-06-21 02:32:25,15.08841003,0.0001395,53.2166,139.8031,89.7243,270.3909,4.9391e-05,4.98e-06,0.0,0 STARLINK-5164,1 54178U 22141X   23172.10584553  .00000498  00000-0  49391-4 0  9992,2 54178  53.2166 139.8031 0001395  89.7243 270.3909 15.08841003 36016,6917.877,95.437,540.707,538.777,0.0
54178.0,STARLINK-5164,PAYLOAD,2023-06-21 04:07:48,15.08843254,0.0001322,53.2162,139.5065,95.8735,264.2407,4.2003e-05,3.81e-06,0.0,0 STARLINK-5164,1 54178U 22141X   23172.17208419  .00000381  00000-0  42003-4 0  9997,2 54178  53.2162 139.5065 0001322  95.8735 264.2407 15.08843254 36026,6917.87,95.437,540.65,538.821,0.0
54178.0,STARLINK-5164,PAYLOAD,2023-06-21 15:15:30,15.08839396,0.0001253,53.2157,137.4248,97.1496,262.9639,1.2073e-05,-9.6e-07,0.0,0 STARLINK-5164,1 54178U 22141X   23172.63576692 -.00000096  00000-0  12073-4 0  9997,2 54178  53.2157 137.4248 0001253  97.1496 262.9639 15.08839396 36093,6917.882,95.438,540.614,538.88,0.0
54178.0,STARLINK-5164,PAYLOAD,2023-06-22 07:09:21,15.08841862,0.0001656,53.2163,134.4515,83.7803,276.3378,-7.2742e-06,-4.04e-06,0.0,0 STARLINK-5164,1 54178U 22141X   23173.29816827 -.00000404  00000-0 -72742-5 0  9991,2 54178  53.2163 134.4515 0001656  83.7803 276.3378 15.08841862 36195,6917.875,95.437,540.885,538.594,0.0
54178.0,STARLINK-5164,PAYLOAD,2023-06-23 07:00:08,15.08847003,0.0001291,53.2155,129.9908,91.5661,268.5479,0.00011297,1.511e-05,0.0,0 STARLINK-5164,1 54178U 22141X   23174.29176037  .00001511  00000-0  11297-3 0  9998,2 54178  53.2155 129.9908 0001291  91.5661 268.5479 15.08847003 36340,6917.859,95.437,540.617,538.831,0.0
54178.0,STARLINK-5164,PAYLOAD,2023-06-24 02:04:46,15.08835941,0.0001231,53.2154,126.4188,99.5414,260.5718,3.9417e-05,3.39e-06,0.0,0 STARLINK-5164,1 54178U 22141X   23175.08665021  .00000339  00000-0  39417-4 0  9994,2 54178  53.2154 126.4188 0001231  99.5414 260.5718 15.08835941 36468,6917.893,95.438,540.609,538.906,0.0
54178.0,STARLINK-5164,PAYLOAD,2023-06-25 03:30:56,15.0884701,0.0001202,53.2163,121.6669,97.6044,262.5084,5.6942e-05,6.19e-06,0.0,0 STARLINK-5164,1 54178U 22141X   23176.14648617  .00000619  00000-0  56942-4 0  9997,2 54178  53.2163 121.6669 0001202  97.6044 262.5084 15.08847010 36621,6917.859,95.437,540.555,538.892,0.0
54178.0,STARLINK-5164,PAYLOAD,2023-06-26 01:46:21,15.08835105,0.0001075,53.216,117.5024,98.4942,261.6172,1.0923e-05,-1.14e-06,0.0,0 STARLINK-5164,1 54178U 22141X   23177.07385524 -.00000114  00000-0  10923-4 0  9995,2 54178  53.2160 117.5024 0001075  98.4942 261.6172 15.08835105 36766,6917.895,95.438,540.504,539.017,0.0
54178.0,STARLINK-5164,PAYLOAD,2023-06-27 04:47:54,15.08840312,0.0001229,53.2168,112.4473,98.847,261.2662,1.424e-05,-6.1e-07,0.0,0 STARLINK-5164,1 54178U 22141X   23178.19993546 -.00000061  00000-0  14240-4 0  9995,2 54178  53.2168 112.4473 0001229  98.8470 261.2662 15.08840312 36932,6917.879,95.438,540.595,538.894,0.0
54178.0,STARLINK-5164,PAYLOAD,2023-06-29 01:18:42,15.08839434,0.0001158,53.2166,104.1211,86.6662,273.4463,5.811e-05,6.37e-06,0.0,0 STARLINK-5164,1 54178U 22141X   23180.05465863  .00000637  00000-0  58110-4 0  9991,2 54178  53.2166 104.1211 0001158  86.6662 273.4463 15.08839434 37216,6917.882,95.438,540.548,538.946,0.0
54178.0,STARLINK-5164,PAYLOAD,2023-07-01 01:00:16,15.08848353,0.0001087,53.2167,95.1994,89.3162,270.7954,-0.00017562,-3.082e-05,0.0,0 STARLINK-5164,1 54178U 22141X   23182.04185879 -.00003082  00000-0 -17562-3 0  9992,2 54178  53.2167  95.1994 0001087  89.3162 270.7954 15.08848353 37518,6917.855,95.437,540.472,538.968,0.0
54178.0,STARLINK-5164,PAYLOAD,2023-07-01 04:11:03,15.08827189,0.0001197,53.2167,94.6047,96.0573,264.0555,0.00010725,1.419e-05,0.0,0 STARLINK-5164,1 54178U 22141X   23182.17434221  .00001419  00000-0  10725-3 0  9998,2 54178  53.2167  94.6047 0001197  96.0573 264.0555 15.08827189 37533,6917.92,95.438,540.613,538.956,0.0
54178.0,STARLINK-5164,PAYLOAD,2023-07-02 00:51:03,15.08838357,0.0001102,53.2172,90.7394,78.9044,281.2072,-2.4761e-05,-6.82e-06,0.0,0 STARLINK-5164,1 54178U 22141X   23183.03546141 -.00000682  00000-0 -24761-4 0  9998,2 54178  53.2172  90.7394 0001102  78.9044 281.2072 15.08838357 37667,6917.885,95.438,540.513,538.988,0.0
54178.0,STARLINK-5164,PAYLOAD,2023-07-03 10:14:09,15.08838777,0.0001205,53.2176,84.4964,94.1134,265.9996,5.8141e-05,6.38e-06,0.0,0 STARLINK-5164,1 54178U 22141X   23184.42650026  .00000638  00000-0  58141-4 0  9998,2 54178  53.2176  84.4964 0001205  94.1134 265.9996 15.08838777 37871,6917.884,95.438,540.583,538.916,0.0
54178.0,STARLINK-5164,PAYLOAD,2023-07-04 16:26:29,15.08840985,0.0001243,53.2177,78.8467,84.2727,275.8407,4.2768e-05,3.93e-06,0.0,0 STARLINK-5164,1 54178U 22141X   23185.68506259  .00000393  00000-0  42768-4 0  9991,2 54178  53.2177  78.8467 0001243  84.2727 275.8407 15.08840985 38060,6917.877,95.437,540.602,538.882,0.0
54178.0,STARLINK-5164,PAYLOAD,2023-07-06 01:49:35,15.08823762,0.000125,53.2172,72.6006,86.8261,273.2874,0.00018638,2.678e-05,0.0,0 STARLINK-5164,1 54178U 22141X   23187.07610928  .00002678  00000-0  18638-3 0  9991,2 54178  53.2172  72.6006 0001250  86.8261 273.2874 15.08823762 38272,6917.93,95.439,540.66,538.93,0.0
54178.0,STARLINK-5164,PAYLOAD,2023-07-06 09:46:30,15.08841859,0.0001238,53.2174,71.114,84.1459,275.9674,5.4618e-05,5.82e-06,0.0,0 STARLINK-5164,1 54178U 22141X   23187.40730273  .00000582  00000-0  54618-4 0  9995,2 54178  53.2174  71.1140 0001238  84.1459 275.9674 15.08841859 38323,6917.875,95.437,540.596,538.883,0.0
54178.0,STARLINK-5164,PAYLOAD,2023-07-07 01:40:21,15.08851519,0.0001139,53.2168,68.1402,83.8096,276.3026,8.1281e-05,1.006e-05,0.0,0 STARLINK-5164,1 54178U 22141X   23188.06969370  .00001006  00000-0  81281-4 0  9998,2 54178  53.2168  68.1402 0001139  83.8096 276.3026 15.08851519 38427,6917.845,95.437,540.498,538.922,0.0
54178.0,STARLINK-5164,PAYLOAD,2023-07-07 22:20:21,15.08857199,0.0001258,53.2167,64.2747,83.3318,276.7817,0.00022619,3.315e-05,0.0,0 STARLINK-5164,1 54178U 22141X   23188.93080051  .00003315  00000-0  22619-3 0  9998,2 54178  53.2167  64.2747 0001258  83.3318 276.7817 15.08857199 38555,6917.828,95.436,540.563,538.823,0.0
54178.0,STARLINK-5164,PAYLOAD,2023-07-08 19:00:24,15.08825335,0.0001291,53.2175,60.4098,87.6196,272.4944,-0.00018566,-3.24e-05,0.0,0 STARLINK-5164,1 54178U 22141X   23189.79195166 -.00003240  00000-0 -18566-3 0  9992,2 54178  53.2175  60.4098 0001291  87.6196 272.4944 15.08825335 38684,6917.925,95.438,540.683,538.897,0.0
54178.0,STARLINK-5164,PAYLOAD,2023-07-09 18:51:11,15.08841479,0.0001099,53.217,55.9478,84.1876,275.9241,-0.00015299,-2.722e-05,0.0,0 STARLINK-5164,1 54178U 22141X   23190.78554478 -.00002722  00000-0 -15299-3 0  9992,2 54178  53.2170  55.9478 0001099  84.1876 275.9241 15.08841479 38835,6917.876,95.437,540.501,538.981,0.0
54178.0,STARLINK-5164,PAYLOAD,2023-07-10 07:34:15,15.08845077,0.0001131,53.2172,53.569,84.9941,275.118,-0.00010383,-1.94e-05,0.0,0 STARLINK-5164,1 54178U 22141X   23191.31546070 -.00001940  00000-0 -10383-3 0  9991,2 54178  53.2172  53.5690 0001131  84.9941 275.1180 15.08845077 38916,6917.865,95.437,540.512,538.947,0.0
54178.0,STARLINK-5164,PAYLOAD,2023-07-11 01:03:31,15.08828617,0.0001178,53.2173,50.2984,91.5617,268.551,0.00019649,2.84e-05,0.0,0 STARLINK-5164,1 54178U 22141X   23192.04411073  .00002840  00000-0  19649-3 0  9998,2 54178  53.2173  50.2984 0001178  91.5617 268.5510 15.08828617 39029,6917.915,95.438,540.595,538.965,0.0
54178.0,STARLINK-5164,PAYLOAD,2023-07-11 23:18:54,15.08843772,0.0001188,53.2177,46.1354,91.5089,268.6039,0.00010747,1.423e-05,0.0,0 STARLINK-5164,1 54178U 22141X   23192.97146699  .00001423  00000-0  10747-3 0  9995,2 54178  53.2177  46.1354 0001188  91.5089 268.6039 15.08843772 39163,6917.869,95.437,540.556,538.912,0.0
